CCSDS_OMM_VERS = 2.0
CREATION_DATE  = 
ORIGINATOR     = 

OBJECT_NAME    = ALOS (DAICHI)
OBJECT_ID      = 2006-002A
CENTER_NAME    = EARTH
REF_FRAME      = TEME
TIME_SYSTEM    = UTC
MEAN_ELEMENT_THEORY = SGP/SGP4

EPOCH          = 2026-01-30T20:30:50.824224
MEAN_MOTION    = 14.69677939
ECCENTRICITY   = .0002123
INCLINATION    = 98.1153
RA_OF_ASC_NODE = 347.0194
ARG_OF_PERICENTER = 74.1667
MEAN_ANOMALY   = 285.9773

EPHEMERIS_TYPE = 0
CLASSIFICATION_TYPE = U
NORAD_CAT_ID   = 28931
ELEMENT_SET_NO = 999
REV_AT_EPOCH   = 6792
BSTAR          = .3272743E-3
MEAN_MOTION_DOT = .1899E-4
MEAN_MOTION_DDOT = 0

CCSDS_OMM_VERS = 2.0
CREATION_DATE  = 
ORIGINATOR     = 

OBJECT_NAME    = H-2A R/B
OBJECT_ID      = 2006-002B
CENTER_NAME    = EARTH
REF_FRAME      = TEME
TIME_SYSTEM    = UTC
MEAN_ELEMENT_THEORY = SGP/SGP4

EPOCH          = 2026-01-31T07:37:06.351168
MEAN_MOTION    = 15.15669100
ECCENTRICITY   = .00534507
INCLINATION    = 98.2346
RA_OF_ASC_NODE = 175.1681
ARG_OF_PERICENTER = 9.7058
MEAN_ANOMALY   = 350.5192

EPHEMERIS_TYPE = 0
CLASSIFICATION_TYPE = U
NORAD_CAT_ID   = 28932
ELEMENT_SET_NO = 999
REV_AT_EPOCH   = 8877
BSTAR          = .38384921E-3
MEAN_MOTION_DOT = .7493E-4
MEAN_MOTION_DDOT = 0

CCSDS_OMM_VERS = 2.0
CREATION_DATE  = 
ORIGINATOR     = 

OBJECT_NAME    = RESURS-DK 1
OBJECT_ID      = 2006-021A
CENTER_NAME    = EARTH
REF_FRAME      = TEME
TIME_SYSTEM    = UTC
MEAN_ELEMENT_THEORY = SGP/SGP4

EPOCH          = 2026-01-31T05:43:41.219328
MEAN_MOTION    = 15.12508870
ECCENTRICITY   = .00050817
INCLINATION    = 69.9350
RA_OF_ASC_NODE = 333.8807
ARG_OF_PERICENTER = 212.1188
MEAN_ANOMALY   = 147.9670

EPHEMERIS_TYPE = 0
CLASSIFICATION_TYPE = U
NORAD_CAT_ID   = 29228
ELEMENT_SET_NO = 999
REV_AT_EPOCH   = 8186
BSTAR          = .19206942E-3
MEAN_MOTION_DOT = .3246E-4
MEAN_MOTION_DDOT = 0

CCSDS_OMM_VERS = 2.0
CREATION_DATE  = 
ORIGINATOR     = 

OBJECT_NAME    = CZ-4B R/B
OBJECT_ID      = 2006-046C
CENTER_NAME    = EARTH
REF_FRAME      = TEME
TIME_SYSTEM    = UTC
MEAN_ELEMENT_THEORY = SGP/SGP4

EPOCH          = 2026-01-31T00:05:19.691232
MEAN_MOTION    = 15.16483502
ECCENTRICITY   = .00345209
INCLINATION    = 97.5667
RA_OF_ASC_NODE = 76.0109
ARG_OF_PERICENTER = 40.3372
MEAN_ANOMALY   = 320.0411

EPHEMERIS_TYPE = 0
CLASSIFICATION_TYPE = U
NORAD_CAT_ID   = 29507
ELEMENT_SET_NO = 999
REV_AT_EPOCH   = 5433
BSTAR          = .29494841E-3
MEAN_MOTION_DOT = .5761E-4
MEAN_MOTION_DDOT = 0

CCSDS_OMM_VERS = 2.0
CREATION_DATE  = 
ORIGINATOR     = 

OBJECT_NAME    = CZ-2C R/B
OBJECT_ID      = 2007-010B
CENTER_NAME    = EARTH
REF_FRAME      = TEME
TIME_SYSTEM    = UTC
MEAN_ELEMENT_THEORY = SGP/SGP4

EPOCH          = 2026-01-31T07:36:08.383680
MEAN_MOTION    = 14.20232736
ECCENTRICITY   = .00597038
INCLINATION    = 98.3971
RA_OF_ASC_NODE = 146.4732
ARG_OF_PERICENTER = 43.7566
MEAN_ANOMALY   = 316.8321

EPHEMERIS_TYPE = 0
CLASSIFICATION_TYPE = U
NORAD_CAT_ID   = 31114
ELEMENT_SET_NO = 999
REV_AT_EPOCH   = 97441
BSTAR          = .78654667E-4
MEAN_MOTION_DOT = .13E-5
MEAN_MOTION_DDOT = 0

CCSDS_OMM_VERS = 2.0
CREATION_DATE  = 
ORIGINATOR     = 

OBJECT_NAME    = COSMO-SKYMED 1
OBJECT_ID      = 2007-023A
CENTER_NAME    = EARTH
REF_FRAME      = TEME
TIME_SYSTEM    = UTC
MEAN_ELEMENT_THEORY = SGP/SGP4

EPOCH          = 2026-01-31T06:49:48.311616
MEAN_MOTION    = 14.96231467
ECCENTRICITY   = .00015034
INCLINATION    = 97.8857
RA_OF_ASC_NODE = 222.0268
ARG_OF_PERICENTER = 81.7509
MEAN_ANOMALY   = 278.3883

EPHEMERIS_TYPE = 0
CLASSIFICATION_TYPE = U
NORAD_CAT_ID   = 31598
ELEMENT_SET_NO = 999
REV_AT_EPOCH   = 931
BSTAR          = .3729851E-3
MEAN_MOTION_DOT = .4149E-4
MEAN_MOTION_DDOT = 0

CCSDS_OMM_VERS = 2.0
CREATION_DATE  = 
ORIGINATOR     = 

OBJECT_NAME    = COSMOS 2428
OBJECT_ID      = 2007-029A
CENTER_NAME    = EARTH
REF_FRAME      = TEME
TIME_SYSTEM    = UTC
MEAN_ELEMENT_THEORY = SGP/SGP4

EPOCH          = 2026-01-31T03:42:49.456512
MEAN_MOTION    = 14.12925726
ECCENTRICITY   = .00067146
INCLINATION    = 70.9400
RA_OF_ASC_NODE = 282.1359
ARG_OF_PERICENTER = 319.0738
MEAN_ANOMALY   = 40.9878

EPHEMERIS_TYPE = 0
CLASSIFICATION_TYPE = U
NORAD_CAT_ID   = 31792
ELEMENT_SET_NO = 999
REV_AT_EPOCH   = 95879
BSTAR          = .24404884E-3
MEAN_MOTION_DOT = .407E-5
MEAN_MOTION_DDOT = 0

CCSDS_OMM_VERS = 2.0
CREATION_DATE  = 
ORIGINATOR     = 

OBJECT_NAME    = SL-16 R/B
OBJECT_ID      = 2007-029B
CENTER_NAME    = EARTH
REF_FRAME      = TEME
TIME_SYSTEM    = UTC
MEAN_ELEMENT_THEORY = SGP/SGP4

EPOCH          = 2026-01-30T22:59:42.278208
MEAN_MOTION    = 14.14823722
ECCENTRICITY   = .0001823
INCLINATION    = 70.9730
RA_OF_ASC_NODE = 251.6989
ARG_OF_PERICENTER = 271.9611
MEAN_ANOMALY   = 186.0136

EPHEMERIS_TYPE = 0
CLASSIFICATION_TYPE = U
NORAD_CAT_ID   = 31793
ELEMENT_SET_NO = 999
REV_AT_EPOCH   = 96003
BSTAR          = .14257E-3
MEAN_MOTION_DOT = .227E-5
MEAN_MOTION_DDOT = 0

CCSDS_OMM_VERS = 2.0
CREATION_DATE  = 
ORIGINATOR     = 

OBJECT_NAME    = KORONAS-FOTON
OBJECT_ID      = 2009-003A
CENTER_NAME    = EARTH
REF_FRAME      = TEME
TIME_SYSTEM    = UTC
MEAN_ELEMENT_THEORY = SGP/SGP4

EPOCH          = 2026-01-31T06:37:41.956320
MEAN_MOTION    = 15.42354245
ECCENTRICITY   = .00091652
INCLINATION    = 82.4329
RA_OF_ASC_NODE = 314.7390
ARG_OF_PERICENTER = 298.3132
MEAN_ANOMALY   = 61.7190

EPHEMERIS_TYPE = 0
CLASSIFICATION_TYPE = U
NORAD_CAT_ID   = 33504
ELEMENT_SET_NO = 999
REV_AT_EPOCH   = 93997
BSTAR          = .23008442E-3
MEAN_MOTION_DOT = .9972E-4
MEAN_MOTION_DDOT = 0

CCSDS_OMM_VERS = 2.0
CREATION_DATE  = 
ORIGINATOR     = 

OBJECT_NAME    = CZ-2C R/B
OBJECT_ID      = 2011-030B
CENTER_NAME    = EARTH
REF_FRAME      = TEME
TIME_SYSTEM    = UTC
MEAN_ELEMENT_THEORY = SGP/SGP4

EPOCH          = 2026-01-31T08:08:31.408224
MEAN_MOTION    = 14.81076931
ECCENTRICITY   = .0054086
INCLINATION    = 97.8479
RA_OF_ASC_NODE = 349.3717
ARG_OF_PERICENTER = 111.2941
MEAN_ANOMALY   = 48.6153

EPHEMERIS_TYPE = 0
CLASSIFICATION_TYPE = U
NORAD_CAT_ID   = 37731
ELEMENT_SET_NO = 999
REV_AT_EPOCH   = 78456
BSTAR          = .19509907E-3
MEAN_MOTION_DOT = .1498E-4
MEAN_MOTION_DDOT = 0

CCSDS_OMM_VERS = 2.0
CREATION_DATE  = 
ORIGINATOR     = 

OBJECT_NAME    = H-2A R/B
OBJECT_ID      = 2012-025E
CENTER_NAME    = EARTH
REF_FRAME      = TEME
TIME_SYSTEM    = UTC
MEAN_ELEMENT_THEORY = SGP/SGP4

EPOCH          = 2026-01-31T02:43:53.298048
MEAN_MOTION    = 14.94832727
ECCENTRICITY   = .00465081
INCLINATION    = 98.4664
RA_OF_ASC_NODE = 355.1822
ARG_OF_PERICENTER = 76.1641
MEAN_ANOMALY   = 284.4746

EPHEMERIS_TYPE = 0
CLASSIFICATION_TYPE = U
NORAD_CAT_ID   = 38341
ELEMENT_SET_NO = 999
REV_AT_EPOCH   = 74260
BSTAR          = .38689169E-3
MEAN_MOTION_DOT = .4235E-4
MEAN_MOTION_DDOT = 0

CCSDS_OMM_VERS = 2.0
CREATION_DATE  = 
ORIGINATOR     = 

OBJECT_NAME    = SHIJIAN-16 (SJ-16)
OBJECT_ID      = 2013-057A
CENTER_NAME    = EARTH
REF_FRAME      = TEME
TIME_SYSTEM    = UTC
MEAN_ELEMENT_THEORY = SGP/SGP4

EPOCH          = 2026-01-31T06:52:26.731200
MEAN_MOTION    = 14.92216914
ECCENTRICITY   = .00173827
INCLINATION    = 74.9719
RA_OF_ASC_NODE = 255.8924
ARG_OF_PERICENTER = 204.8546
MEAN_ANOMALY   = 155.1807

EPHEMERIS_TYPE = 0
CLASSIFICATION_TYPE = U
NORAD_CAT_ID   = 39358
ELEMENT_SET_NO = 999
REV_AT_EPOCH   = 66592
BSTAR          = .10911852E-3
MEAN_MOTION_DOT = .1086E-4
MEAN_MOTION_DDOT = 0

