ALOS (DAICHI)           
1 28931U 06002A   26030.85475491  .00001899  00000+0  32727-3 0  9995
2 28931  98.1153 347.0194 0002123  74.1667 285.9773 14.69677939 67925
H-2A R/B                
1 28932U 06002B   26031.31743462  .00007493  00000+0  38385-3 0  9996
2 28932  98.2346 175.1681 0053450   9.7058 350.5192 15.15669100 88772
RESURS-DK 1             
1 29228U 06021A   26031.23867152  .00003246  00000+0  19207-3 0  9994
2 29228  69.9350 333.8807 0005081 212.1188 147.9670 15.12508870 81860
CZ-4B R/B               
1 29507U 06046C   26031.00370013  .00005761  00000+0  29495-3 0  9995
2 29507  97.5667  76.0109 0034520  40.3372 320.0411 15.16483502 54332
CZ-2C R/B               
1 31114U 07010B   26031.31676370  .00000130  00000+0  78655-4 0  9991
2 31114  98.3971 146.4732 0059703  43.7566 316.8321 14.20232736974410
COSMO-SKYMED 1          
1 31598U 07023A   26031.28458694  .00004149  00000+0  37299-3 0  9996
2 31598  97.8857 222.0268 0001503  81.7509 278.3883 14.96231467  9318
COSMOS 2428             
1 31792U 07029A   26031.15473908  .00000407  00000+0  24405-3 0  9997
2 31792  70.9400 282.1359 0006714 319.0738  40.9878 14.12925726958796
SL-16 R/B               
1 31793U 07029B   26030.95812822  .00000227  00000+0  14257-3 0  9991
2 31793  70.9730 251.6989 0001823 271.9611 186.0136 14.14823722960039
KORONAS-FOTON           
1 33504U 09003A   26031.27618005  .00009972  00000+0  23008-3 0  9990
2 33504  82.4329 314.7390 0009165 298.3132  61.7190 15.42354245939977
CZ-2C R/B               
1 37731U 11030B   26031.33925241  .00001498  00000+0  19510-3 0  9997
2 37731  97.8479 349.3717 0054086 111.2941  48.6153 14.81076931784560
H-2A R/B                
1 38341U 12025E   26031.11381132  .00004235  00000+0  38689-3 0  9991
2 38341  98.4664 355.1822 0046508  76.1641 284.4746 14.94832727742603
SHIJIAN-16 (SJ-16)      
1 39358U 13057A   26031.28642050  .00001086  00000+0  10912-3 0  9993
2 39358  74.9719 255.8924 0017382 204.8546 155.1807 14.92216914665926
